SAPPHIRE                
1 39088U 13009C   26063.72783775  .00000259  00000+0  10534-3 0  9995
2 39088  98.4216 245.6737 0010899 194.5324 165.5550 14.35206447681591
PRAETORIAN SDA_602      
1 65565U 25203A   26063.51272513  .00000422  00000+0  36747-3 0  9999
2 65565  81.3004 107.7357 0007070 114.2203 245.9694 13.84332390 24216
PRAETORIAN SDA_603      
1 65566U 25203B   26063.50649231  .00001350  00000+0  12066-2 0  9992
2 65566  81.3032 107.5857 0010638 118.1482 242.0750 13.83891987 24220
PRAETORIAN SDA_604      
1 65567U 25203C   26063.53342771  .00000055  00000+0  39627-4 0  9990
2 65567  81.3028 107.8097 0006724 120.1892 239.9931 13.83033495 24211
PRAETORIAN SDA_605      
1 65568U 25203D   26063.24109037  .00000069  00000+0  51928-4 0  9998
2 65568  81.2990 107.8502 0009514 111.5499 248.6673 13.83528049 24187
PRAETORIAN SDA_606      
1 65569U 25203E   26063.51591508  .00000884  00000+0  79104-3 0  9997
2 65569  81.3044 107.7884 0007478 118.1132 242.0781 13.83523105 24215
PRAETORIAN SDA_607      
1 65570U 25203F   26063.51493557  .00000333  00000+0  28640-3 0  9992
2 65570  81.3007 107.6032 0009954 113.8563 246.3638 13.84464568 24228
PRAETORIAN SDA_608      
1 65571U 25203G   26063.45540164  .00000076  00000+0  58126-4 0  9990
2 65571  81.2982 107.7743 0007125 119.9493 240.2372 13.83886106 24208
PRAETORIAN SDA_609      
1 65572U 25203H   26063.49426597  .00000262  00000+0  22367-3 0  9992
2 65572  81.3021 107.7463 0008253 114.9120 245.2895 13.84313732 24215
PRAETORIAN SDA_610      
1 65573U 25203J   26063.51200135  .00000084  00000+0  64990-4 0  9995
2 65573  81.2983 107.6884 0007780 115.2990 244.8974 13.84010426 24218
PRAETORIAN SDA_611      
1 65574U 25203K   26063.46710317  .00000323  00000+0  28310-3 0  9999
2 65574  81.2979 107.7993 0006865 123.3525 236.8289 13.83295527 24208
PRAETORIAN SDA_612      
1 65575U 25203L   26063.80415899  .00000224  00000+0  18742-3 0  9993
2 65575  81.3000 107.3300 0010488 114.7322 245.4927 13.85043332 24266
PRAETORIAN SDA_613      
1 65576U 25203M   26063.80546725  .00000357  00000+0  31651-3 0  9998
2 65576  81.2980 107.4257 0007168 115.5569 244.6329 13.82987002 24252
PRAETORIAN SDA_614      
1 65577U 25203N   26063.55692632  .00000072  00000+0  53460-4 0  9997
2 65577  81.2987 107.6108 0008346 112.9210 247.2829 13.84764984 24236
PRAETORIAN SDA_615      
1 65578U 25203P   26063.50792793  .00000309  00000+0  26518-3 0  9998
2 65578  81.3000 107.5548 0010185 113.3110 246.9119 13.84422433 24226
PRAETORIAN SDA_616      
1 65579U 25203Q   26063.53866403  .00000320  00000+0  28054-3 0  9992
2 65579  81.3041 107.8149 0006570 122.6155 237.5636 13.83297760 24218
