[{"OBJECT_NAME":"SAPPHIRE","OBJECT_ID":"2013-009C","EPOCH":"2026-03-04T17:28:05.181600","MEAN_MOTION":14.35206447,"ECCENTRICITY":0.0010899,"INCLINATION":98.4216,"RA_OF_ASC_NODE":245.6737,"ARG_OF_PERICENTER":194.5324,"MEAN_ANOMALY":165.555,"EPHEMERIS_TYPE":0,"CLASSIFICATION_TYPE":"U","NORAD_CAT_ID":39088,"ELEMENT_SET_NO":999,"REV_AT_EPOCH":68159,"BSTAR":0.00010534,"MEAN_MOTION_DOT":2.59e-6,"MEAN_MOTION_DDOT":0},{"OBJECT_NAME":"PRAETORIAN SDA_602","OBJECT_ID":"2025-203A","EPOCH":"2026-03-04T12:18:19.451232","MEAN_MOTION":13.8433239,"ECCENTRICITY":0.000707,"INCLINATION":81.3004,"RA_OF_ASC_NODE":107.7357,"ARG_OF_PERICENTER":114.2203,"MEAN_ANOMALY":245.9694,"EPHEMERIS_TYPE":0,"CLASSIFICATION_TYPE":"U","NORAD_CAT_ID":65565,"ELEMENT_SET_NO":999,"REV_AT_EPOCH":2421,"BSTAR":0.00036747,"MEAN_MOTION_DOT":4.22e-6,"MEAN_MOTION_DDOT":0},{"OBJECT_NAME":"PRAETORIAN SDA_603","OBJECT_ID":"2025-203B","EPOCH":"2026-03-04T12:09:20.935584","MEAN_MOTION":13.83891987,"ECCENTRICITY":0.0010638,"INCLINATION":81.3032,"RA_OF_ASC_NODE":107.5857,"ARG_OF_PERICENTER":118.1482,"MEAN_ANOMALY":242.075,"EPHEMERIS_TYPE":0,"CLASSIFICATION_TYPE":"U","NORAD_CAT_ID":65566,"ELEMENT_SET_NO":999,"REV_AT_EPOCH":2422,"BSTAR":0.0012066,"MEAN_MOTION_DOT":1.35e-5,"MEAN_MOTION_DDOT":0},{"OBJECT_NAME":"PRAETORIAN SDA_604","OBJECT_ID":"2025-203C","EPOCH":"2026-03-04T12:48:08.154144","MEAN_MOTION":13.83033495,"ECCENTRICITY":0.0006724,"INCLINATION":81.3028,"RA_OF_ASC_NODE":107.8097,"ARG_OF_PERICENTER":120.1892,"MEAN_ANOMALY":239.9931,"EPHEMERIS_TYPE":0,"CLASSIFICATION_TYPE":"U","NORAD_CAT_ID":65567,"ELEMENT_SET_NO":999,"REV_AT_EPOCH":2421,"BSTAR":3.9627e-5,"MEAN_MOTION_DOT":5.5e-7,"MEAN_MOTION_DDOT":0},{"OBJECT_NAME":"PRAETORIAN SDA_605","OBJECT_ID":"2025-203D","EPOCH":"2026-03-04T05:47:10.207968","MEAN_MOTION":13.83528049,"ECCENTRICITY":0.00095143,"INCLINATION":81.299,"RA_OF_ASC_NODE":107.8502,"ARG_OF_PERICENTER":111.5499,"MEAN_ANOMALY":248.6673,"EPHEMERIS_TYPE":0,"CLASSIFICATION_TYPE":"U","NORAD_CAT_ID":65568,"ELEMENT_SET_NO":999,"REV_AT_EPOCH":2418,"BSTAR":5.1928092e-5,"MEAN_MOTION_DOT":6.9e-7,"MEAN_MOTION_DDOT":0},{"OBJECT_NAME":"PRAETORIAN SDA_606","OBJECT_ID":"2025-203E","EPOCH":"2026-03-04T12:22:55.062912","MEAN_MOTION":13.83523105,"ECCENTRICITY":0.0007478,"INCLINATION":81.3044,"RA_OF_ASC_NODE":107.7884,"ARG_OF_PERICENTER":118.1132,"MEAN_ANOMALY":242.0781,"EPHEMERIS_TYPE":0,"CLASSIFICATION_TYPE":"U","NORAD_CAT_ID":65569,"ELEMENT_SET_NO":999,"REV_AT_EPOCH":2421,"BSTAR":0.00079104,"MEAN_MOTION_DOT":8.84e-6,"MEAN_MOTION_DDOT":0},{"OBJECT_NAME":"PRAETORIAN SDA_607","OBJECT_ID":"2025-203F","EPOCH":"2026-03-04T12:21:30.433248","MEAN_MOTION":13.84464568,"ECCENTRICITY":0.0009954,"INCLINATION":81.3007,"RA_OF_ASC_NODE":107.6032,"ARG_OF_PERICENTER":113.8563,"MEAN_ANOMALY":246.3638,"EPHEMERIS_TYPE":0,"CLASSIFICATION_TYPE":"U","NORAD_CAT_ID":65570,"ELEMENT_SET_NO":999,"REV_AT_EPOCH":2422,"BSTAR":0.0002864,"MEAN_MOTION_DOT":3.33e-6,"MEAN_MOTION_DDOT":0},{"OBJECT_NAME":"PRAETORIAN SDA_608","OBJECT_ID":"2025-203G","EPOCH":"2026-03-04T10:55:46.701696","MEAN_MOTION":13.83886106,"ECCENTRICITY":0.00071252,"INCLINATION":81.2982,"RA_OF_ASC_NODE":107.7743,"ARG_OF_PERICENTER":119.9493,"MEAN_ANOMALY":240.2372,"EPHEMERIS_TYPE":0,"CLASSIFICATION_TYPE":"U","NORAD_CAT_ID":65571,"ELEMENT_SET_NO":999,"REV_AT_EPOCH":2420,"BSTAR":5.812649e-5,"MEAN_MOTION_DOT":7.6e-7,"MEAN_MOTION_DDOT":0},{"OBJECT_NAME":"PRAETORIAN SDA_609","OBJECT_ID":"2025-203H","EPOCH":"2026-03-04T11:51:44.579808","MEAN_MOTION":13.84313732,"ECCENTRICITY":0.00082532,"INCLINATION":81.3021,"RA_OF_ASC_NODE":107.7463,"ARG_OF_PERICENTER":114.912,"MEAN_ANOMALY":245.2895,"EPHEMERIS_TYPE":0,"CLASSIFICATION_TYPE":"U","NORAD_CAT_ID":65572,"ELEMENT_SET_NO":999,"REV_AT_EPOCH":2421,"BSTAR":0.00022366644,"MEAN_MOTION_DOT":2.62e-6,"MEAN_MOTION_DDOT":0},{"OBJECT_NAME":"PRAETORIAN SDA_610","OBJECT_ID":"2025-203J","EPOCH":"2026-03-04T12:17:16.916640","MEAN_MOTION":13.84010426,"ECCENTRICITY":0.000778,"INCLINATION":81.2983,"RA_OF_ASC_NODE":107.6884,"ARG_OF_PERICENTER":115.299,"MEAN_ANOMALY":244.8974,"EPHEMERIS_TYPE":0,"CLASSIFICATION_TYPE":"U","NORAD_CAT_ID":65573,"ELEMENT_SET_NO":999,"REV_AT_EPOCH":2421,"BSTAR":6.499e-5,"MEAN_MOTION_DOT":8.4e-7,"MEAN_MOTION_DDOT":0},{"OBJECT_NAME":"PRAETORIAN SDA_611","OBJECT_ID":"2025-203K","EPOCH":"2026-03-04T11:12:37.713888","MEAN_MOTION":13.83295527,"ECCENTRICITY":0.00068659,"INCLINATION":81.2979,"RA_OF_ASC_NODE":107.7993,"ARG_OF_PERICENTER":123.3525,"MEAN_ANOMALY":236.8289,"EPHEMERIS_TYPE":0,"CLASSIFICATION_TYPE":"U","NORAD_CAT_ID":65574,"ELEMENT_SET_NO":999,"REV_AT_EPOCH":2420,"BSTAR":0.00028309717,"MEAN_MOTION_DOT":3.23e-6,"MEAN_MOTION_DDOT":0},{"OBJECT_NAME":"PRAETORIAN SDA_612","OBJECT_ID":"2025-203L","EPOCH":"2026-03-04T19:17:59.336736","MEAN_MOTION":13.85043332,"ECCENTRICITY":0.0010488,"INCLINATION":81.3,"RA_OF_ASC_NODE":107.33,"ARG_OF_PERICENTER":114.7322,"MEAN_ANOMALY":245.4927,"EPHEMERIS_TYPE":0,"CLASSIFICATION_TYPE":"U","NORAD_CAT_ID":65575,"ELEMENT_SET_NO":999,"REV_AT_EPOCH":2426,"BSTAR":0.00018742,"MEAN_MOTION_DOT":2.24e-6,"MEAN_MOTION_DDOT":0},{"OBJECT_NAME":"PRAETORIAN SDA_613","OBJECT_ID":"2025-203M","EPOCH":"2026-03-04T19:19:52.370400","MEAN_MOTION":13.82987002,"ECCENTRICITY":0.0007168,"INCLINATION":81.298,"RA_OF_ASC_NODE":107.4257,"ARG_OF_PERICENTER":115.5569,"MEAN_ANOMALY":244.6329,"EPHEMERIS_TYPE":0,"CLASSIFICATION_TYPE":"U","NORAD_CAT_ID":65576,"ELEMENT_SET_NO":999,"REV_AT_EPOCH":2425,"BSTAR":0.00031651,"MEAN_MOTION_DOT":3.57e-6,"MEAN_MOTION_DDOT":0},{"OBJECT_NAME":"PRAETORIAN SDA_614","OBJECT_ID":"2025-203N","EPOCH":"2026-03-04T13:21:58.434048","MEAN_MOTION":13.84764984,"ECCENTRICITY":0.0008346,"INCLINATION":81.2987,"RA_OF_ASC_NODE":107.6108,"ARG_OF_PERICENTER":112.921,"MEAN_ANOMALY":247.2829,"EPHEMERIS_TYPE":0,"CLASSIFICATION_TYPE":"U","NORAD_CAT_ID":65577,"ELEMENT_SET_NO":999,"REV_AT_EPOCH":2423,"BSTAR":5.346e-5,"MEAN_MOTION_DOT":7.2e-7,"MEAN_MOTION_DDOT":0},{"OBJECT_NAME":"PRAETORIAN SDA_615","OBJECT_ID":"2025-203P","EPOCH":"2026-03-04T12:11:24.973152","MEAN_MOTION":13.84422433,"ECCENTRICITY":0.0010185,"INCLINATION":81.3,"RA_OF_ASC_NODE":107.5548,"ARG_OF_PERICENTER":113.311,"MEAN_ANOMALY":246.9119,"EPHEMERIS_TYPE":0,"CLASSIFICATION_TYPE":"U","NORAD_CAT_ID":65578,"ELEMENT_SET_NO":999,"REV_AT_EPOCH":2422,"BSTAR":0.00026518,"MEAN_MOTION_DOT":3.09e-6,"MEAN_MOTION_DDOT":0},{"OBJECT_NAME":"PRAETORIAN SDA_616","OBJECT_ID":"2025-203Q","EPOCH":"2026-03-04T12:55:40.572192","MEAN_MOTION":13.8329776,"ECCENTRICITY":0.000657,"INCLINATION":81.3041,"RA_OF_ASC_NODE":107.8149,"ARG_OF_PERICENTER":122.6155,"MEAN_ANOMALY":237.5636,"EPHEMERIS_TYPE":0,"CLASSIFICATION_TYPE":"U","NORAD_CAT_ID":65579,"ELEMENT_SET_NO":999,"REV_AT_EPOCH":2421,"BSTAR":0.00028054,"MEAN_MOTION_DOT":3.2e-6,"MEAN_MOTION_DDOT":0}]
